,ODS Code,ODS Org Name,Windows 10 Active Last 30 days,Total current unsupported Win10 devices,% of Win10 currently unsupported,Active Devices Last 30 days,W7-Active7 Red= above 100 Devices Current,% of Win 7 devices against Active Server (Last 7 Days),index,postcode,geocode,latitude,longitude,Status
0,RJ1,Guy's and St Thomas' NHS Foundation Trust (Merged with RT3),21799,15992,73.36116336,21799,79,0.362401945,65,SE1 7EH,"London Borough of Lambeth, London, Greater London, England, SE1 7EH, United Kingdom",51.49873405,-0.119090826,21/22 Approaching Standards
1,RNK,Tavistock and Portman NHS Foundation Trust,1178,1017,86.3327674,1178,0,0,95,NW3 5BA,"London Borough of Camden, London, Greater London, England, NW3 5BA, United Kingdom",51.5469,-0.17544,21/22 Approaching Standards
2,RAE,Bradford Teaching Hospitals NHS Foundation Trust,6534,4187,64.0801959,6534,15,0.229568411,14,BD9 6RJ,"Bradford, West Yorkshire, England, BD9 6RJ, United Kingdom",53.80643578,-1.796212289,21/22 Standards Met
3,RHU,Portsmouth Hospitals University National Health Service Trust,2482,1387,55.88235294,2482,13,0.523771152,63,PO6 3LY,"Portsmouth, South East England, England, PO6 3LY, United Kingdom",50.84952205,-1.071349575,21/22 Standards Met
4,RJ7,St George's University Hospitals NHS Foundation Trust,4286,1417,33.06112926,4286,206,4.806346244,68,SW17 0QT,"London Borough of Wandsworth, London, Greater London, England, SW17 0QT, United Kingdom",51.42662118,-0.174634962,21/22 Standards Met
5,RYA,West Midlands Ambulance Service University NHS Foundation Trust,2521,806,31.9714399,2521,0,0,200,DY5 1LX,"Dudley, West Midlands Combined Authority, England, DY5 1LX, United Kingdom",52.48565,-2.11905,21/22 Standards Met
6,RWJ,Stockport NHS Foundation Trust,4902,1320,26.92778458,4902,0,0,159,SK2 7JE,"Stockport, Greater Manchester, England, SK2 7JE, United Kingdom",53.38378,-2.13202,21/22 Approaching Standards
7,RX6,North East Ambulance Service NHS Foundation Trust,1027,246,23.95326193,1027,0,0,171,NE15 8NY,"Newburn Riverside, Lemington, Newcastle upon Tyne, North of Tyne, England, NE15 8NY, United Kingdom",54.96877168,-1.71094245,21/22 Standards Met
8,RAN,Royal National Orthopaedic Hospital NHS Trust,1807,426,23.57498616,1807,0,0,17,HA7 4LP,"London Borough of Harrow, London, Greater London, England, HA7 4LP, United Kingdom",51.63257,-0.31044,21/22 Standards Met
9,RGN,North West Anglia NHS Foundation Trust,6572,1528,23.25015216,6572,9,0.136944614,54,PE3 9GZ,"City of Peterborough, Cambridgeshire and Peterborough, England, PE3 9GZ, United Kingdom",52.58464592,-0.278872915,21/22 Approaching Standards
10,RYF,South Western Ambulance Service NHS Foundation Trust,1812,416,22.9580574,1812,0,0,204,EX2 7HY,"Sowton Industrial Estate, Middlemoor, Exeter, Devon, South West England, England, EX2 7HY, United Kingdom",50.7203945,-3.464713725,21/22 Approaching Standards
11,RXK,Sandwell and West Birmingham Hospitals NHS Trust,8754,1994,22.77815856,8754,0,0,180,B18 7QH,"Birmingham, Attwood Green, West Midlands Combined Authority, England, B18 7QH, United Kingdom",52.48763695,-1.930203526,21/22 Standards Met
12,RX9,East Midlands Ambulance Service NHS Trust,1403,231,16.46471846,1403,0,0,174,NG8 6PY,"Nottingham Business Park, Bilborough, City of Nottingham, East Midlands, England, NG8 6PY, United Kingdom",52.98152207,-1.238102161,21/22 Approaching Standards
13,RBK,Walsall Healthcare NHS Trust,4373,682,15.59570089,4373,17,0.388749142,23,WS2 9PS,"Walsall, Caldmore, West Midlands Combined Authority, England, WS2 9PS, United Kingdom",52.58278745,-1.99850029,21/22 Standards Met
14,RVY,Southport and Ormskirk Hospital NHS Trust,2173,321,14.77220433,2173,3,0.138057984,148,PR8 6PN,"Sefton, Liverpool City Region, England, PR8 6PN, United Kingdom",53.63355,-2.97882,21/22 Standards Met
15,RFR,The Rotherham NHS Foundation Trust,4613,676,14.65423802,4613,0,0,50,S60 2UD,"Rotherham, Sheffield City Region, England, S60 2UD, United Kingdom",53.41397,-1.34288,21/22 Standards Met
16,TAJ,Black Country Healthcare NHS Foundation Trust,5361,681,12.70285395,5361,0,0,3,DY2 8PS,"Dudley, West Midlands Combined Authority, England, DY2 8PS, United Kingdom",52.50842,-2.0845,21/22 Approaching Standards
17,RDE,EAST SUFFOLK AND NORTH ESSEX NHS FOUNDATION TRUST,8679,1054,12.14425625,8679,39,0.449360525,39,CO4 5JL,"Mile End, Colchester, Essex, East of England, England, CO4 5JL, United Kingdom",51.9098515,0.898939152,21/22 Approaching Standards
18,RTD,The Newcastle Upon Tyne Hospitals NHS Foundation Trust,14103,1605,11.38055733,14103,61,0.432532085,129,NE7 7DN,"Newcastle upon Tyne, North of Tyne, England, NE7 7DN, United Kingdom",55.002468,-1.593782851,21/22 Standards Met
19,RPA,Medway NHS Foundation Trust,3503,395,11.2760491,3503,0,0,106,ME7 5NY,"Gillingham, Medway, South East England, England, ME7 5NY, United Kingdom",51.3798003,0.5416386,21/22 Standards Met
20,RAL,Royal Free London NHS Foundation Trust,11034,1237,11.21080297,11034,816,7.395323545,16,NW3 2QG,"London Borough of Camden, London, Greater London, England, NW3 2QG, United Kingdom",51.55311605,-0.165226349,21/22 Approaching Standards
21,RGM,Royal Papworth Hospital NHS Foundation Trust,1983,213,10.74130106,1983,0,0,53,CB2 0AY,CB2 0AY,52.1735278,0.135880804,21/22 Standards Met
22,RFS,Chesterfield Royal Hospital NHS Foundation Trust,4961,516,10.4011288,4961,24,0.483773433,51,S44 5BL,"Chesterfield, Derbyshire, East Midlands, England, S44 5BL, United Kingdom",53.23621,-1.40005,21/22 Standards Met
23,RYE,South Central Ambulance Service NHS Foundation Trust,2464,240,9.74025974,2464,0,0,203,OX26 6HR,"Bicester, Cherwell, Oxfordshire, South East England, England, OX26 6HR, United Kingdom",51.89177,-1.1495,21/22 Approaching Standards
24,R1H,Barts Health NHS Trust,4680,440,9.401709402,4680,1,0.021367521,7,E1 2ES,"London Borough of Tower Hamlets, London, Greater London, England, E1 2ES, United Kingdom",51.51717,-0.05605,21/22 Approaching Standards
25,RXX,Surrey and Borders Partnership NHS Foundation Trust,4264,368,8.630393996,4264,0,0,190,KT22 7AD,"Mole Business Park, Leatherhead, Surrey, South East England, England, KT22 7AD, United Kingdom",51.29759,-0.33563,21/22 Standards Met
26,RVW,North Tees and Hartlepool NHS Foundation Trust,4165,349,8.379351741,4165,0,0,147,TS24 9AH,"Hartlepool, Tees Valley, England, TS24 9AH, United Kingdom",54.7021082,-1.228027019,21/22 Standards Met
27,RM1,Norfolk and Norwich University Hospitals NHS Foundation Trust,6209,454,7.3119665,6209,14,0.225479143,86,NR4 7UY,"Colney, South Norfolk, Norfolk, East of England, England, NR4 7UY, United Kingdom",52.61725283,1.22130875,21/22 Standards Met
28,RW4,Mersey Care NHS Foundation Trust,13179,961,7.291903786,13179,0,0,150,L34 1PJ,"Kings Business Park, Mosscroft, Knowsley, Liverpool City Region, England, L34 1PJ, United Kingdom",53.42402,-2.82642,21/22 Standards Exceeded
29,RDU,Frimley Health NHS Foundation Trust,8231,537,6.524116146,8231,221,2.684971449,41,GU16 7UJ,"Frimley, Surrey, South East England, England, GU16 7UJ, United Kingdom",51.31990615,-0.741712552,21/22 Approaching Standards
30,RXN,Lancashire Teaching Hospitals NHS Foundation Trust,7665,482,6.288323549,7665,2,0.026092629,183,PR2 9HT,"Preston, Lancashire, North West England, England, PR2 9HT, United Kingdom",53.79106489,-2.706316137,21/22 Standards Met
31,RTH,Oxford University Hospitals NHS Foundation Trust,12181,764,6.272063049,12181,34,0.279123225,133,OX3 9DU,"Headington, Oxford, Oxfordshire, South East England, England, OX3 9DU, United Kingdom",51.764955,-1.220434557,21/22 Standards Met
32,RA9,Torbay and South Devon NHS Foundation Trust,5559,347,6.242129879,5559,1,0.017988847,13,TQ2 7AA,"Torbay, South West England, England, TQ2 7AA, United Kingdom",50.48228608,-3.553696355,21/22 Standards Met
33,RQM,Chelsea and Westminster Hospital NHS Foundation Trust,6386,389,6.091450047,6386,62,0.970873786,112,SW10 9NH,"Royal Borough of Kensington and Chelsea, London, Greater London, England, SW10 9NH, United Kingdom",51.48428393,-0.181603024,21/22 Standards Met
34,RY7,Wirral Community NHS Foundation Trust,2282,137,6.003505697,2282,0,0,197,CH42 0LQ,"Wirral, Liverpool City Region, England, CH42 0LQ, United Kingdom",53.38003,-3.02653,21/22 Standards Met
35,RH8,Royal Devon and Exeter NHS Foundation Trust,8864,517,5.832581227,8864,0,0,59,EX2 5DW,"Exeter, Devon, South West England, England, EX2 5DW, United Kingdom",50.71754113,-3.508362625,21/22 Standards Not Met
36,RCX,"The Queen Elizabeth Hospital, King's Lynn, NHS Foundation Trust",2770,155,5.59566787,2770,0,0,36,PE30 4ET,"King's Lynn and West Norfolk, Norfolk, East of England, England, PE30 4ET, United Kingdom",52.7556865,0.443608729,21/22 Approaching Standards
37,REM,Liverpool University Hospitals NHS Foundation Trust,5053,282,5.580843064,5053,15,0.296853354,44,L7 8XP,"Liverpool, Liverpool City Region, England, L7 8XP, United Kingdom",53.4106274,-2.9648117,21/22 Standards Met
38,RN3,Great Western Hospitals NHS Foundation Trust,4707,231,4.907584449,4707,24,0.509878904,91,SN3 6BB,"Liddington, Swindon, South West England, England, SN3 6BB, United Kingdom",51.53848525,-1.726377877,21/22 Standards Met
39,RGD,Leeds and York Partnership NHS Foundation Trust,3293,148,4.494382022,3293,1,0.030367446,52,LS15 8ZB,"Austhorpe, Leeds, Austhorpe, Yorkshire and the Humber, England, LS15 8ZB, United Kingdom",53.79695559,-1.426199343,21/22 Standards Met
40,RYC,East of England Ambulance Service NHS Trust,1659,73,4.400241109,1659,0,0,201,SG8 6NA,"Saxon Way Industrial Estate, South Cambridgeshire, Cambridgeshire, Cambridgeshire and Peterborough, England, SG8 6NA, United Kingdom",52.07662275,0.014145547,21/22 Approaching Standards
41,RTG,Derby Teaching Hospitals NHS Foundation Trust,10745,468,4.355514193,10745,32,0.297812936,132,DE22 3NE,"Derby, East Midlands, England, DE22 3NE, United Kingdom",52.91076917,-1.513825592,21/22 Standards Met
42,RXR,East Lancashire Hospitals NHS Trust,6913,288,4.166063938,6913,18,0.260378996,186,BB2 3HH,"Blackburn with Darwen, North West England, England, BB2 3HH, United Kingdom",53.7359807,-2.463570973,21/22 Standards Met
43,RBQ,Liverpool Heart and Chest Hospital NHS Foundation Trust,1728,71,4.108796296,1728,0,0,26,L14 3PE,"Liverpool, Liverpool City Region, England, L14 3PE, United Kingdom",53.4107169,-2.899915882,21/22 Standards Met
44,RT5,Leicestershire Partnership NHS Trust,12238,479,3.914038242,12238,2,0.01634254,128,LE4 8PQ,"Thurmaston, Charnwood, Leicestershire, East Midlands, England, LE4 8PQ, United Kingdom",52.6765,-1.10302,21/22 Standards Met
45,RXP,County Durham and Darlington NHS Foundation Trust,6501,250,3.845562221,6501,0,0,184,DL3 6HX,"Darlington, Tees Valley, England, DL3 6HX, United Kingdom",54.5306627,-1.563635512,21/22 Standards Met
46,RYJ,Imperial College Healthcare NHS Trust,14234,525,3.688351834,14234,6,0.042152592,206,W2 1BL,"City of Westminster, Greater London, England, W2 1BL, United Kingdom",51.5174679,-0.1753826,21/22 Standards Met
47,RV5,South London and Maudsley NHS Foundation Trust,6231,216,3.466538276,6231,0,0,141,BR3 3BX,"London Borough of Bromley, London, Greater London, England, BR3 3BX, United Kingdom",51.38264165,-0.031196944,21/22 Standards Met
48,RF4,"Barking, Havering and Redbridge University Hospitals NHS Trust",5482,188,3.429405327,5482,37,0.674936155,48,RM7 0AG,"London Borough of Havering, London, Greater London, England, RM7 0AG, United Kingdom",51.56870225,0.178895999,21/22 Standards Met
49,RRP,"Barnet, Enfield and Haringey Mental Health NHS Trust",4229,144,3.405060298,4229,0,0,122,N15 3TH,"London Borough of Haringey, London, Greater London, England, N15 3TH, United Kingdom",51.57982825,-0.089806968,21/22 Standards Met
50,RC9,Bedfordshire Hospitals NHS Foundation Trust,2336,79,3.381849315,2336,1318,56.42123288,31,LU4 0DZ,"Luton, East of England, England, LU4 0DZ, United Kingdom",51.89384515,-0.474293493,21/22 Approaching Standards
51,RP1,Northamptonshire Healthcare NHS Foundation Trust,5727,191,3.335079448,5727,0,0,101,NN15 7PW,"Kettering, North Northamptonshire, East Midlands, England, NN15 7PW, United Kingdom",52.3937272,-0.7206623,21/22 Standards Met
52,RYX,Central London Community Healthcare NHS Trust,6213,197,3.170770964,6213,2,0.032190568,212,NW1 5JD,"City of Westminster, Greater London, England, NW1 5JD, United Kingdom",51.52284,-0.15154,21/22 Standards Met
53,RJ6,Croydon Health Services NHS Trust,4150,129,3.108433735,4150,0,0,67,CR7 7YE,"Thornton Heath, London Borough of Croydon, London, Greater London, England, CR7 7YE, United Kingdom",51.38948255,-0.110124842,21/22 Approaching Standards
54,RMP,Tameside and Glossop Integrated Care NHS Foundation Trust,2986,92,3.081044876,2986,0,0,89,OL6 9RW,"Tameside, Greater Manchester, England, OL6 9RW, United Kingdom",53.49153,-2.07143,21/22 Approaching Standards
55,RP5,Doncaster and Bassetlaw Teaching Hospitals NHS Foundation Trust,5490,166,3.023679417,5490,43,0.783242259,103,DN2 5LT,"Doncaster, Sheffield City Region, England, DN2 5LT, United Kingdom",53.53078,-1.10894,21/22 Standards Met
56,RT1,Cambridgeshire and Peterborough NHS Foundation Trust,5797,169,2.915301018,5797,0,0,125,CB21 5EF,"Fulbourn, South Cambridgeshire, Cambridgeshire, East of England, England, CB21 5EF, United Kingdom",52.18480975,0.188339058,21/22 Approaching Standards
57,RHM,University Hospital Southampton NHS Foundation Trust,11480,332,2.891986063,11480,44,0.383275261,61,SO16 6YD,"Southampton, South East England, England, SO16 6YD, United Kingdom",50.93286409,-1.434249799,21/22 Approaching Standards
58,RYW,Birmingham Community Healthcare NHS Foundation Trust,5334,150,2.812148481,5334,0,0,211,B7 4BN,"Innovation Birmingham Campus, Digbeth, Birmingham, Aston, West Midlands Combined Authority, England, B7 4BN, United Kingdom",52.48754265,-1.886282125,21/22 Approaching Standards
59,RHQ,Sheffield Teaching Hospitals NHS Foundation Trust,15537,434,2.793332046,15537,57,0.36686619,62,S5 7AU,"Sheffield, Sheffield City Region, England, S5 7AU, United Kingdom",53.4102004,-1.457304146,21/22 Standards Met
60,RCB,York and Scarborough Teaching Hospitals NHS Foundation Trust,7827,207,2.644691453,7827,15,0.191644308,32,YO31 8HE,"York, Yorkshire and the Humber, England, YO31 8HE, United Kingdom",53.97044762,-1.083929817,21/22 Approaching Standards
61,RWP,Worcestershire Acute Hospitals NHS Trust,2498,66,2.642113691,2498,0,0,161,WR5 1DD,"Worcester, Worcestershire, England, WR5 1DD, United Kingdom",52.1920534,-2.184080664,21/22 Approaching Standards
62,RET,The Walton Centre NHS Foundation Trust,501,12,2.395209581,501,0,0,47,L9 7LJ,"Liverpool, Liverpool City Region, England, L9 7LJ, United Kingdom",53.4664,-2.931,21/22 Standards Met
63,RKB,University Hospitals Coventry and Warwickshire NHS Trust,6976,167,2.393922018,6976,35,0.501720183,78,CV2 2DX,"Coventry, West Midlands Combined Authority, England, CV2 2DX, United Kingdom",52.42121,-1.4384,21/22 Standards Met
64,R0A,Manchester University NHS Foundation Trust,29515,695,2.354734881,29515,155,0.5251567,0,M13 9WL,"Manchester, Greater Manchester, England, M13 9WL, United Kingdom",53.46244,-2.22771,21/22 Standards Met
65,TAH,Sheffield Health & Social Care NHS Foundation Trust,2823,66,2.337938363,2823,1,0.035423309,2,S10 3TH,"Sheffield, Sheffield City Region, England, S10 3TH, United Kingdom",53.36448,-1.53742,21/22 Approaching Standards
66,RRU,London Ambulance Service NHS Trust,2224,50,2.248201439,2224,0,0,123,SE1 8SD,"London Borough of Lambeth, London, Greater London, England, SE1 8SD, United Kingdom",51.50017,-0.10903,21/22 Standards Met
67,RBS,Alder Hey Children's NHS Foundation Trust,4443,98,2.205716858,4443,0,0,27,L12 2AP,"Liverpool, Liverpool City Region, England, L12 2AP, United Kingdom",53.42024,-2.89872,21/22 Standards Met
68,RHW,Royal Berkshire NHS Foundation Trust,6302,137,2.173913043,6302,89,1.412250079,64,RG1 5AN,"Reading, South East England, England, RG1 5AN, United Kingdom",51.45009923,-0.957996861,21/22 Standards Met
69,RA2,Royal Surrey County Hospital NHS Foundation Trust,4796,102,2.12677231,4796,2,0.041701418,10,GU2 7XX,"Guildford, Surrey, South East England, England, GU2 7XX, United Kingdom",51.24134085,-0.608984513,21/22 Standards Met
70,RY6,Leeds Community Healthcare NHS Trust,4150,86,2.072289157,4150,0,0,196,LS6 1PF,"Headingley Office Park, Hyde Park, Leeds, West Yorkshire, England, LS6 1PF, United Kingdom",53.8162127,-1.566936748,21/22 Standards Met
71,RX2,Sussex Partnership NHS Foundation Trust,5772,118,2.044352044,5772,0,0,168,BN13 3EP,"Worthing, West Sussex, South East England, England, BN13 3EP, United Kingdom",50.84121,-0.41116,21/22 Standards Exceeded
72,RX4,"Northumberland, Tyne and Wear NHS Foundation Trust",7847,159,2.026252071,7847,0,0,170,NE3 3XT,"Newcastle upon Tyne, North of Tyne, England, NE3 3XT, United Kingdom",55.00649,-1.6331,21/22 Approaching Standards
73,RGP,James Paget University Hospitals NHS Foundation Trust,2906,57,1.96145905,2906,4,0.137646249,55,NR31 6LA,"Great Yarmouth, Norfolk, East of England, England, NR31 6LA, United Kingdom",52.56164058,1.71768688,21/22 Standards Met
74,RTQ,Gloucester Health and Care NHS Foundation Trust,4987,93,1.864848606,4987,0,0,136,GL3 4AW,"Gloucester Business Park, Brockworth, Tewkesbury, Gloucestershire, South West England, England, GL3 4AW, United Kingdom",51.84710785,-2.176480099,21/22 Standards Met
75,RWH,East and North Hertfordshire NHS Trust,4703,86,1.82862003,4703,0,0,158,SG1 4AB,"Stevenage, Hertfordshire, East of England, England, SG1 4AB, United Kingdom",51.92443385,-0.212154744,21/22 Approaching Standards
76,RBD,Dorset County Hospital NHS Foundation Trust,2474,45,1.818916734,2474,2,0.080840744,22,DT1 2JY,"Dorchester, Dorset, South West England, England, DT1 2JY, United Kingdom",50.71294,-2.44694,21/22 Standards Met
77,RTE,Gloucestershire Hospitals NHS Foundation Trust,7397,122,1.649317291,7397,0,0,130,GL53 7AN,"Cheltenham, Gloucestershire, South West England, England, GL53 7AN, United Kingdom",51.8921411,-2.07196833,21/22 Approaching Standards
78,RNQ,Kettering General Hospital NHS Foundation Trust,3848,62,1.611226611,3848,10,0.25987526,97,NN16 8UZ,"Kettering, North Northamptonshire, East Midlands, England, NN16 8UZ, United Kingdom",52.4024688,-0.742783838,21/22 Standards Met
79,RJN,East Cheshire NHS Trust,2376,38,1.599326599,2376,5,0.21043771,73,SK10 3BL,"Macclesfield, Cheshire East, North West England, England, SK10 3BL, United Kingdom",53.26247108,-2.140477157,21/22 Standards Met
80,RXF,Mid Yorkshire Hospitals NHS Trust,6971,104,1.491894994,6971,46,0.659876632,178,WF1 4DG,"Wakefield, West Yorkshire, England, WF1 4DG, United Kingdom",53.69300061,-1.488184203,21/22 Standards Met
81,RA7,University Hospitals Bristol and Weston NHS Foundation Trust,10143,681,6.713989944,10143,1,0.009859016,12,BS1 3NU,"Bristol, City of Bristol, West of England, England, BS1 3NU, United Kingdom",51.45914555,-2.593286276,21/22 Approaching Standards
82,RTK,Ashford and St Peter's Hospitals NHS Foundation Trust,4680,62,1.324786325,4680,23,0.491452991,134,KT16 0PZ,"Runnymede, Surrey, South East England, England, KT16 0PZ, United Kingdom",51.3766453,-0.5262388,21/22 Approaching Standards
83,RQ3,Birmingham Women's and Children's NHS Foundation Trust,5329,67,1.257271533,5329,5,0.093826234,110,B4 6NH,"Birmingham, Attwood Green, West Midlands Combined Authority, England, B4 6NH, United Kingdom",52.48493685,-1.894223887,21/22 Approaching Standards
84,RBV,North East and Yorkshire,4520,56,1.238938053,4520,1,0.022123894,29,M20 4BX,"Manchester, Greater Manchester, England, M20 4BX, United Kingdom",53.42964175,-2.230209507,21/22 Standards Met
85,RWE,University Hospitals of Leicester NHS Trust,9214,112,1.215541567,9214,19,0.206207944,155,LE1 5WW,"City of Leicester, East Midlands, England, LE1 5WW, United Kingdom",52.62829945,-1.135681112,21/22 Standards Met
86,RX1,Nottingham University Hospitals NHS Trust,12920,157,1.215170279,12920,117,0.905572755,167,NG7 2UH,"City of Nottingham, Nottinghamshire, East Midlands, England, NG7 2UH, United Kingdom",52.9434616,-1.185488938,21/22 Approaching Standards
87,RAJ,Mid and South Essex NHS Foundation Trust,11803,142,1.203083962,11803,88,0.745573159,15,SS0 0RY,"Southend-on-Sea, East of England, England, SS0 0RY, United Kingdom",51.5542555,0.688315553,21/22 Approaching Standards
88,RN7,Dartford and Gravesham NHS Trust,2945,35,1.188455008,2945,35,1.188455008,93,DA2 8DA,"Darenth, Dartford, Kent, South East England, England, DA2 8DA, United Kingdom",51.4347634,0.259281226,21/22 Standards Met
89,RAX,Kingston Hospital NHS Foundation Trust,1288,15,1.164596273,1288,0,0,21,KT2 7QB,"Royal Borough of Kingston upon Thames, Greater London, England, KT2 7QB, United Kingdom",51.41498435,-0.282510239,21/22 Standards Not Met
90,RJZ,King's College Hospital NHS Foundation Trust,12255,142,1.15871073,12255,36,0.29375765,75,SE5 9RS,"London Borough of Lambeth, London, Greater London, England, SE5 9RS, United Kingdom",51.46903535,-0.09375365,21/22 Standards Not Met
91,RX7,North West Ambulance Service NHS Trust,3464,40,1.154734411,3464,0,0,172,BL1 5DD,"Bolton, Greater Manchester, England, BL1 5DD, United Kingdom",53.579,-2.47581,21/22 Approaching Standards
92,RVJ,North Bristol NHS Trust,7630,86,1.127129751,7630,18,0.235910878,143,BS10 5NB,"Bristol, City of Bristol, West of England, England, BS10 5NB, United Kingdom",51.49677036,-2.592174979,21/22 Standards Met
93,RR7,Gateshead Health NHS Foundation Trust,3821,43,1.125359853,3821,3,0.078513478,116,NE9 6SX,"Gateshead, Tyne and Wear, North East, England, NE9 6SX, United Kingdom",54.93784345,-1.581114091,21/22 Approaching Standards
94,RAT,North East London NHS Foundation Trust,9308,99,1.063601203,9308,0,0,20,RM13 8GQ,"London Borough of Havering, London, Greater London, England, RM13 8GQ, United Kingdom",51.51858,0.17113,21/22 Standards Met
95,RRV,University College London Hospitals NHS Foundation Trust,9905,104,1.04997476,9905,471,4.755174154,124,NW1 2PG,"London Borough of Camden, London, Greater London, England, NW1 2PG, United Kingdom",51.52573,-0.13741,21/22 Approaching Standards
96,RM3,Salford Royal NHS Foundation Trust,8986,94,1.046071667,8986,7,0.077898954,87,M6 8HD,"Salford, Greater Manchester, England, M6 8HD, United Kingdom",53.4873571,-2.324237648,21/22 Standards Met
97,RBN,St Helens and Knowsley Hospital Services NHS Trust,6084,62,1.019066404,6084,7,0.115055884,25,L35 5DR,"Whiston, Knowsley, Liverpool City Region, England, L35 5DR, United Kingdom",53.4200523,-2.787683478,21/22 Standards Met
98,RWY,Calderdale and Huddersfield NHS Foundation Trust,5258,53,1.007987828,5258,30,0.570559148,166,HD3 3EA,HD3 3EA,53.65547,-1.81634,21/22 Standards Met
99,RTF,Northumbria Healthcare NHS Foundation Trust,9119,89,0.975984209,9119,0,0,131,NE29 8NH,"North Tyneside, North of Tyne, England, NE29 8NH, United Kingdom",55.02647665,-1.465287,21/22 Standards Met
100,RXM,Derbyshire Healthcare NHS Foundation Trust,3589,35,0.975202006,3589,0,0,182,DE22 3LZ,DE22 3LZ,52.9183059,-1.512895875,21/22 Standards Met
101,RJ2,Lewisham and Greenwich NHS Trust,6403,62,0.968296111,6403,28,0.437295018,66,SE13 6LH,"London Borough of Lewisham, London, Greater London, England, SE13 6LH, United Kingdom",51.45371183,-0.01769826,21/22 Standards Met
102,RJE,University Hospitals of North Midlands NHS Trust,8538,80,0.936987585,8538,48,0.562192551,71,ST4 6QG,"Stoke-on-Trent, England, ST4 6QG, United Kingdom",53.00167633,-2.21291894,21/22 Approaching Standards
103,RVR,Epsom and St Helier University Hospitals NHS Trust,6316,59,0.934135529,6316,17,0.269157695,145,SM5 1AA,"London Borough of Sutton, London, Greater London, England, SM5 1AA, United Kingdom",51.38045884,-0.184936252,21/22 Standards Met
104,RAP,North Middlesex University Hospital NHS Trust,3088,27,0.874352332,3088,8,0.259067358,18,N18 1QX,"London Borough of Enfield, London, Greater London, England, N18 1QX, United Kingdom",51.61309,-0.07375,21/22 Standards Met
105,R1L,Essex Partnership University NHS Foundation Trust,7600,66,0.868421053,7600,0,0,9,SS11 7XX,"Runwell, Chelmsford, Essex, East of England, England, SS11 7XX, United Kingdom",51.63103335,0.539691704,21/22 Standards Met
106,RXW,Shrewsbury and Telford Hospital NHS Trust,5339,46,0.861584566,5339,34,0.636823375,189,SY3 8XQ,"Shrewsbury, Shropshire, England, SY3 8XQ, United Kingdom",52.70886395,-2.79341279,21/22 Approaching Standards
107,RRE,Midlands Partnership NHS Foundation Trust,9512,76,0.798990749,9512,3,0.031539108,118,ST16 3SR,"Stafford, Staffordshire, England, ST16 3SR, United Kingdom",52.81059,-2.10909,21/22 Approaching Standards
108,RY8,Derbyshire Community Health Services NHS Foundation Trust,4633,36,0.777034319,4633,1,0.021584287,198,S42 7JE,"Brampton, Wadshelf, North East Derbyshire, Derbyshire, East Midlands, England, S42 7JE, United Kingdom",53.23967,-1.47948,21/22 Standards Met
109,R0D,University Hospitals Dorset NHS Foundation Trust,8234,63,0.765120233,8234,29,0.352198203,2,BH15 2JB,"Bournemouth, Christchurch and Poole, South West England, England, BH15 2JB, United Kingdom",50.72134775,-1.972916882,21/22 Approaching Standards
110,RNN,North Cumbria Integrated Care NHS Foundation Trust,6287,48,0.763480197,6287,47,0.74757436,96,CA2 7HY,"Carlisle, Cumbria, North West England, England, CA2 7HY, United Kingdom",54.89673705,-2.95835749,21/22 Standards Met
111,RPC,Queen Victoria Hospital NHS Foundation Trust,1048,8,0.763358779,1048,0,0,107,RH19 3DZ,"East Grinstead, Mid Sussex, West Sussex, South East England, England, RH19 3DZ, United Kingdom",51.13552351,-0.001661922,21/22 Standards Exceeded
112,RBZ,Northern Devon Healthcare NHS Trust,3717,28,0.753295669,3717,8,0.215227334,30,EX31 4JB,"Barnstaple, North Devon, Devon, South West England, England, EX31 4JB, United Kingdom",51.09217,-4.05043,#N/A
113,RV3,Central and North West London NHS Foundation Trust,9770,72,0.736949846,9770,0,0,140,NW1 3AX,"London Borough of Camden, London, Greater London, England, NW1 3AX, United Kingdom",51.5242002,-0.1422208,21/22 Standards Met
114,RCD,Harrogate and District NHS Foundation Trust,4767,34,0.713236837,4767,6,0.125865324,33,HG2 7SX,"Harrogate, North Yorkshire, Yorkshire and the Humber, England, HG2 7SX, United Kingdom",53.99383165,-1.51809719,21/22 Standards Met
115,RW6,Pennine Acute Hospitals NHS Trust,9800,65,0.663265306,9800,24,0.244897959,152,M8 5RB,"Manchester, Greater Manchester, England, M8 5RB, United Kingdom",53.51788,-2.2295,#N/A
116,RP7,Lincolnshire Partnership NHS Foundation Trust,2727,18,0.660066007,2727,0,0,105,LN1 1FS,"Lincoln, Lincolnshire, East Midlands, England, LN1 1FS, United Kingdom",53.24403,-0.55691,21/22 Standards Met
117,RVN,Avon and Wiltshire Mental Health Partnership NHS Trust,5304,34,0.641025641,5304,0,0,144,BA1 3QE,"Bath, Bath and North East Somerset, West of England, England, BA1 3QE, United Kingdom",51.3886,-2.39231,21/22 Standards Met
118,RRK,University Hospitals Birmingham NHS Foundation Trust,18767,120,0.639420259,18767,159,0.847231843,121,B15 2GW,"Birmingham, Attwood Green, West Midlands Combined Authority, England, B15 2GW, United Kingdom",52.4532961,-1.9384003,21/22 Approaching Standards
119,RRJ,The Royal Orthopaedic Hospital NHS Foundation Trust,1729,11,0.636205899,1729,0,0,120,B31 2AP,"Birmingham, Attwood Green, West Midlands Combined Authority, England, B31 2AP, United Kingdom",52.42112757,-1.960741362,21/22 Approaching Standards
120,RDR,Sussex Community NHS Foundation Trust,5486,34,0.619759388,5486,1,0.018228217,40,BN2 3EW,"Brighton, Brighton and Hove, South East England, England, BN2 3EW, United Kingdom",50.8305157,-0.113841684,21/22 Standards Met
121,RWK,East London NHS Foundation Trust,9570,59,0.616509927,9570,0,0,160,E1 8DE,"London Borough of Tower Hamlets, London, Greater London, England, E1 8DE, United Kingdom",51.51350177,-0.072287542,21/22 Standards Met
122,RH5,Somerset Partnership NHS Foundation Trust,9564,58,0.60644082,9564,0,0,58,TA1 5DA,"Somerset West and Taunton, Somerset, South West England, England, TA1 5DA, United Kingdom",51.01131498,-3.11945844,21/22 Standards Exceeded
123,RKL,West London Mental Health NHS Trust,5145,31,0.602526725,5145,7,0.136054422,80,UB2 4SD,"Great Western Industrial Park, London Borough of Ealing, London, Greater London, England, UB2 4SD, United Kingdom",51.5066106,-0.362831101,21/22 Standards Met
124,RTV,North West Boroughs Healthcare NHS Foundation Trust Merged to Mersey Care NHS Foundation Trust (RW4),1914,11,0.574712644,1914,1,0.052246604,138,WA2 8WA,"Winwick, Warrington, North West England, England, WA2 8WA, United Kingdom",53.42835635,-2.608142375,#N/A
125,RMY,Norfolk and Suffolk NHS Foundation Trust,2862,16,0.559049616,2862,0,0,90,NR6 5BE,"Hellesdon, Broadland, Norfolk, East of England, England, NR6 5BE, United Kingdom",52.6596812,1.251347211,21/22 Standards Met
126,RA4,Yeovil District Hospital NHS Foundation Trust,2186,12,0.54894785,2186,0,0,11,BA21 4AT,"Yeovil, South Somerset, Somerset, South West England, England, BA21 4AT, United Kingdom",50.94469285,-2.634436102,21/22 Standards Met
127,RP4,Great Ormond Street Hospital For Children NHS Foundation Trust,6742,37,0.548798576,6742,26,0.385642243,102,WC1N 3JH,"London Borough of Camden, London, Greater London, England, WC1N 3JH, United Kingdom",51.52251595,-0.120713246,21/22 Standards Met
128,RR8,Leeds Teaching Hospitals NHS Trust,14270,78,0.546601261,14270,8757,61.36650315,117,LS9 7TF,"Leeds, West Yorkshire, England, LS9 7TF, United Kingdom",53.8069351,-1.521480325,21/22 Standards Met
129,RYV,Cambridgeshire Community Services NHS Trust,4396,22,0.500454959,4396,4,0.090991811,210,PE27 4LG,"St. Ives, Huntingdonshire, Cambridgeshire, Cambridgeshire and Peterborough, England, PE27 4LG, United Kingdom",52.3210626,-0.063814629,21/22 Standards Met
130,RP6,Moorfields Eye Hospital NHS Foundation Trust,2202,11,0.499545867,2202,5,0.227066303,104,EC1V 2PD,"London Borough of Islington, London, Greater London, England, EC1V 2PD, United Kingdom",51.52729675,-0.090135572,21/22 Standards Not Met
131,RT2,Pennine Care NHS Foundation Trust,5219,26,0.498179728,5219,4,0.076643035,126,OL6 7SR,"Tameside, Greater Manchester, England, OL6 7SR, United Kingdom",53.48581,-2.09998,21/22 Standards Met
132,RTR,South Tees Hospitals NHS Foundation Trust,6297,29,0.460536764,6297,20,0.317611561,137,TS4 3BW,"Middlesbrough, Tees Valley, England, TS4 3BW, United Kingdom",54.55176,-1.21481,21/22 Approaching Standards
133,RQW,The Princess Alexandra Hospital NHS Trust,2940,12,0.408163265,2940,0,0,113,CM20 1QX,"Harlow, Essex, East of England, England, CM20 1QX, United Kingdom",51.77140835,0.086144255,21/22 Standards Met
134,R1K,London North West University Healthcare NHS Trust,7426,30,0.403985995,7426,0,0,8,HA1 3UJ,"London Borough of Brent, London, Greater London, England, HA1 3UJ, United Kingdom",51.57518005,-0.321527984,21/22 Standards Met
135,RY3,Norfolk Community Health and Care NHS Trust,2270,9,0.396475771,2270,0,0,193,NR2 3TU,"Norwich, Norfolk, East of England, England, NR2 3TU, United Kingdom",52.63441463,1.262819908,21/22 Standards Met
136,RYR,University Hospital Sussex NHS Foundation Trust Merged with RXH,13067,175,1.33925155,13067,42,0.321420372,208,BN11 2DH,"Worthing, West Sussex, South East England, England, BN11 2DH, United Kingdom",50.81655395,-0.363957529,21/22 Standards Met
137,RMC,Bolton NHS Foundation Trust,3150,12,0.380952381,3150,0,0,88,BL4 0JR,"Bolton, Greater Manchester, England, BL4 0JR, United Kingdom",53.55228145,-2.429540026,21/22 Standards Met
138,RK9,University Hospitals Plymouth NHS Trust,7887,30,0.380372765,7887,4,0.050716369,77,PL6 8DH,"Plymouth, South West England, England, PL6 8DH, United Kingdom",50.41606758,-4.11446543,21/22 Standards Met
139,RWR,Hertfordshire Partnership University NHS Foundation Trust,8523,32,0.375454652,8523,0,0,162,AL10 8YE,"Hatfield, Welwyn Hatfield, Hertfordshire, East of England, England, AL10 8YE, United Kingdom",51.7669801,-0.216644751,21/22 Standards Met
140,RY4,Hertfordshire Community NHS Trust,8523,32,0.375454652,8523,0,0,194,AL7 1BW,"Welwyn Hatfield, Hertfordshire, East of England, England, AL7 1BW, United Kingdom",51.80215341,-0.194206379,21/22 Standards Met
141,RCF,Airedale NHS Foundation Trust,2933,11,0.375042618,2933,6,0.204568701,34,BD20 6TD,"Steeton with Eastburn, Bradford, West Yorkshire, England, BD20 6TD, United Kingdom",53.89763917,-1.964989066,21/22 Approaching Standards
142,RBL,Wirral University Teaching Hospital NHS Foundation Trust,5221,19,0.363914959,5221,6,0.114920513,24,CH49 5PE,"Wirral, Liverpool City Region, England, CH49 5PE, United Kingdom",53.36988065,-3.095678228,21/22 Approaching Standards
143,TAD,Bradford District Care NHS Foundation Trust,3940,14,0.355329949,3940,0,0,0,BD18 3LD,"Shipley, Bradford, West Yorkshire, England, BD18 3LD, United Kingdom",53.83967,-1.78861,21/22 Standards Exceeded
144,R1A,Herefordshire and Worcestershire Health and Care NHS Trust,4803,17,0.353945451,4803,0,0,3,WR5 1JR,"Warndon, Blackpole, Worcester, Worcestershire, England, WR5 1JR, United Kingdom",52.19216225,-2.179037927,21/22 Standards Exceeded
145,RYY,Kent Community Health NHS Foundation Trust,5935,20,0.336983993,5935,0,0,213,ME16 9NT,"Hermitage Court, Aylesford, Tonbridge and Malling, Kent, South East England, England, ME16 9NT, United Kingdom",51.27827,0.47879,21/22 Standards Met
146,RLT,George Eliot Hospital NHS Trust,2107,7,0.332225914,2107,5,0.237304224,84,CV10 7DJ,"Nuneaton and Bedworth, Warwickshire, England, CV10 7DJ, United Kingdom",52.51258,-1.47844,21/22 Standards Met
147,R1F,Isle of Wight NHS Trust,3426,11,0.321074139,3426,3,0.087565674,6,PO30 5TG,"Newport, Isle of Wight, South East England, England, PO30 5TG, United Kingdom",50.7118565,-1.301087281,21/22 Standards Met
148,RJC,South Warwickshire NHS Foundation Trust,4709,15,0.318538968,4709,2,0.042471862,70,CV34 5BW,"Warwick, Warwickshire, England, CV34 5BW, United Kingdom",52.289886,-1.5847949,21/22 Standards Met
149,RCU,Sheffield Children's NHS Foundation Trust,5999,19,0.316719453,5999,21,0.350058343,35,S10 2TH,"Sheffield, Sheffield City Region, England, S10 2TH, United Kingdom",53.38052655,-1.490727848,21/22 Standards Met
150,RRF,"Wrightington, Wigan and Leigh NHS Foundation Trust",5574,17,0.304987442,5574,11,0.197344815,119,WN1 2NN,"Wigan, Greater Manchester, England, WN1 2NN, United Kingdom",53.55781715,-2.629651728,21/22 Approaching Standards
151,RN5,Hampshire Hospitals NHS Foundation Trust,6559,20,0.304924531,6559,30,0.457386797,92,RG24 9NA,"Rooksdown, Basingstoke and Deane, Hampshire, South East England, England, RG24 9NA, United Kingdom",51.28063,-1.10992,21/22 Standards Met
152,RD1,Royal United Hospitals Bath NHS Foundation Trust,4408,13,0.29491833,4408,13,0.29491833,37,BA1 3NG,"Bath, Bath and North East Somerset, West of England, England, BA1 3NG, United Kingdom",51.39226567,-2.391686776,21/22 Approaching Standards
153,RDY,Dorset Healthcare University NHS Foundation Trust,8247,24,0.291014915,8247,1,0.012125621,42,BH17 0RB,"Nuffield Industrial Estate, Stanley Green, Poole, Bournemouth, Christchurch and Poole, South West England, England, BH17 0RB, United Kingdom",50.74007,-1.97804,21/22 Standards Met
154,RX8,Yorkshire Ambulance Service NHS Trust,3151,9,0.285623612,3151,0,0,173,WF2 0XQ,"Wakefield, West Yorkshire, England, WF2 0XQ, United Kingdom",53.70850653,-1.517902838,21/22 Approaching Standards
155,TAF,Camden and Islington NHS Foundation Trust,2476,7,0.282714055,2476,0,0,1,NW1 0PE,"London Borough of Camden, London, Greater London, England, NW1 0PE, United Kingdom",51.53585745,-0.131667499,21/22 Standards Met
156,RQX,Homerton University Hospital NHS Foundation Trust,4743,13,0.27408813,4743,12,0.253004428,114,E9 6SR,"London Borough of Hackney, London, Greater London, England, E9 6SR, United Kingdom",51.5500514,-0.045983599,21/22 Approaching Standards
157,RJL,Northern Lincolnshire and Goole NHS Foundation Trust,5141,14,0.27232056,5141,10,0.194514686,72,DN33 2BA,"North East Lincolnshire, Yorkshire and the Humber, England, DN33 2BA, United Kingdom",53.54486,-0.09623,21/22 Approaching Standards
158,RWF,Maidstone and Tunbridge Wells NHS Trust,5985,16,0.267335004,5985,13,0.217209691,156,ME16 9QQ,"Maidstone, Kent, South East England, England, ME16 9QQ, United Kingdom",51.2747348,0.48443645,21/22 Approaching Standards
159,RL1,The Robert Jones and Agnes Hunt Orthopaedic Hospital NHS Foundation Trust,1525,4,0.262295082,1525,1,0.06557377,81,SY10 7AG,"Selattyn and Gobowen, Selattyn, Shropshire, England, SY10 7AG, United Kingdom",52.88421,-3.03269,21/22 Standards Met
160,RXQ,Buckinghamshire Healthcare NHS Trust,6705,17,0.253542133,6705,69,1.029082774,185,HP7 0JD,"Amersham, Buckinghamshire, South East England, England, HP7 0JD, United Kingdom",51.663,-0.62143,21/22 Standards Not Met
161,RLY,North Staffordshire Combined Healthcare NHS Trust,2024,5,0.247035573,2024,0,0,85,ST4 8HH,"Trentham Business Quarter, Newstead, Longton, Stoke-on-Trent, England, ST4 8HH, United Kingdom",52.9699,-2.16722,21/22 Standards Met
162,RL4,The Royal Wolverhampton NHS Trust,8265,20,0.241984271,8265,24,0.290381125,82,WV10 0QP,"Wolverhampton, West Midlands Combined Authority, England, WV10 0QP, United Kingdom",52.59972,-2.09556,21/22 Standards Met
163,RWD,United Lincolnshire Hospitals NHS Trust,7051,17,0.241100553,7051,49,0.694936888,154,LN2 5QY,"Lincoln, Lincolnshire, East Midlands, England, LN2 5QY, United Kingdom",53.23358,-0.51964,21/22 Approaching Standards
164,RYD,South East Coast Ambulance Service NHS Foundation Trust,2105,5,0.237529691,2105,0,0,202,RH10 9BG,"Crawley, West Sussex, South East England, England, RH10 9BG, United Kingdom",51.13270203,-0.16871155,21/22 Approaching Standards
165,RTX,University Hospitals of Morecambe Bay NHS Foundation Trust,6724,15,0.223081499,6724,0,0,139,LA9 7RG,"Kendal, South Lakeland, Cumbria, North West England, England, LA9 7RG, United Kingdom",54.30650905,-2.732327395,21/22 Standards Met
166,RY5,Lincolnshire Community Health Services NHS Trust,2257,5,0.221533008,2257,0,0,195,LN5 7JH,"Lincoln, Lincolnshire, East Midlands, England, LN5 7JH, United Kingdom",53.22647,-0.52415,21/22 Approaching Standards
167,RNU,Oxford Health NHS Foundation Trust,7377,16,0.216890335,7377,0,0,99,OX3 7JX,"Headington, Oxford, Oxfordshire, South East England, England, OX3 7JX, United Kingdom",51.75084,-1.22232,21/22 Standards Met
168,RXA,Cheshire and Wirral Partnership NHS Foundation Trust,3786,8,0.211304807,3786,0,0,175,CH2 1BQ,"Upton-by-Chester, Cheshire West and Chester, North West England, England, CH2 1BQ, United Kingdom",53.21168615,-2.898922284,21/22 Standards Met
169,R1C,Solent NHS Trust,4792,10,0.208681135,4792,5,0.104340568,4,SO19 8BR,"Southampton, South East England, England, SO19 8BR, United Kingdom",50.9017322,-1.3296926,21/22 Standards Met
170,RWX,Berkshire Healthcare NHS Foundation Trust,5968,12,0.201072386,5968,0,0,165,RG12 1BQ,"Bracknell, Bracknell Forest, South East England, England, RG12 1BQ, United Kingdom",51.41685,-0.75469,21/22 Standards Exceeded
171,REF,Royal Cornwall Hospitals NHS Trust,6231,12,0.19258546,6231,0,0,43,TR1 3LJ,"Kenwyn, Cornwall, South West England, England, TR1 3LJ, United Kingdom",50.26659452,-5.091153862,21/22 Standards Met
172,RQY,South West London and St George's Mental Health NHS Trust,3273,6,0.183318057,3273,0,0,115,SW17 7DJ,"London Borough of Wandsworth, London, Greater London, England, SW17 7DJ, United Kingdom",51.43680125,-0.1716311,21/22 Standards Met
173,RJR,Countess of Chester Hospital NHS Foundation Trust,3819,7,0.183294056,3819,4,0.104739461,74,CH2 1UL,"Bache, Cheshire West and Chester, North West England, England, CH2 1UL, United Kingdom",53.20984295,-2.899450349,21/22 Standards Met
174,REP,Liverpool Women's NHS Foundation Trust,1663,3,0.180396873,1663,5,0.300661455,46,L8 7SS,"Liverpool, Liverpool City Region, England, L8 7SS, United Kingdom",53.39846,-2.96008,21/22 Standards Exceeded
175,RXT,Birmingham and Solihull Mental Health NHS Foundation Trust,3910,7,0.179028133,3910,0,0,187,B1 3RB,"Birmingham, Attwood Green, West Midlands Combined Authority, England, B1 3RB, United Kingdom",52.48414288,-1.917280568,21/22 Approaching Standards
176,RNS,Northampton General Hospital NHS Trust,4584,7,0.152705061,4584,6,0.130890052,98,NN1 5BD,"Northampton, West Northamptonshire, East Midlands, England, NN1 5BD, United Kingdom",52.2362387,-0.883999199,21/22 Standards Exceeded
177,RTP,Surrey and Sussex Healthcare NHS Trust,4506,6,0.133155792,4506,23,0.510430537,135,RH1 5RH,"Reigate and Banstead, Surrey, South East England, England, RH1 5RH, United Kingdom",51.21919,-0.16201,21/22 Standards Met
178,RK5,Sherwood Forest Hospitals NHS Foundation Trust,13266,16,0.120609076,13266,0,0,76,NG17 4JL,"Sutton in Ashfield, Stanton Hill, Ashfield, Nottinghamshire, East Midlands, England, NG17 4JL, United Kingdom",53.1357303,-1.235898276,21/22 Approaching Standards
179,REN,The Clatterbridge Cancer Centre NHS Foundation Trust,1831,2,0.109229929,1831,0,0,45,CH63 4JY,"Radio Clatterbridge, Poulton, Bebington, Wirral, Liverpool City Region, England, CH63 4JY, United Kingdom",53.33160735,-3.025315972,21/22 Standards Met
180,RVV,East Kent Hospitals University NHS Foundation Trust,8384,9,0.107347328,8384,0,0,146,CT1 3NG,"Canterbury, Kent, South East England, England, CT1 3NG, United Kingdom",51.26637227,1.087451856,21/22 Standards Exceeded
181,RY2,Bridgewater Community Healthcare NHS Foundation Trust,1921,2,0.104112441,1921,0,0,192,WA5 7TY,"Burtonwood and Westbrook, Warrington, North West England, England, WA5 7TY, United Kingdom",53.41599754,-2.627389446,21/22 Standards Met
182,RPY,The Royal Marsden NHS Foundation Trust,4919,5,0.101646676,4919,13,0.264281358,109,SW3 6JJ,"Royal Borough of Kensington and Chelsea, London, Greater London, England, SW3 6JJ, United Kingdom",51.49056,-0.17257,21/22 Standards Met
183,RFF,Barnsley Hospital NHS Foundation Trust,3053,3,0.098264003,3053,0,0,49,S75 2EP,S75 2EP,53.55913,-1.49949,21/22 Standards Met
184,RNZ,Salisbury NHS Foundation Trust,3292,3,0.091130012,3292,17,0.516403402,100,SP2 8BJ,"Britford, Wiltshire, South West England, England, SP2 8BJ, United Kingdom",51.04395,-1.78982,21/22 Standards Met
185,RBT,Mid Cheshire Hospitals NHS Foundation Trust,3903,3,0.076863951,3903,11,0.281834486,28,CW1 4QJ,"Leighton, Cheshire East, North West England, England, CW1 4QJ, United Kingdom",53.11924,-2.476226766,21/22 Standards Met
186,RLQ,Wye Valley NHS Trust,3940,3,0.076142132,3940,2,0.050761421,83,HR1 2ER,"Hereford, Herefordshire, England, HR1 2ER, United Kingdom",52.05701,-2.70571,21/22 Approaching Standards
187,RKE,Whittington Health NHS Trust,5499,4,0.072740498,5499,0,0,79,N19 5NF,"London Borough of Islington, London, Greater London, England, N19 5NF, United Kingdom",51.56655995,-0.139341465,21/22 Approaching Standards
188,RXL,Blackpool Teaching Hospitals NHS Foundation Trust,7158,5,0.069851914,7158,8,0.111763062,181,FY3 8NR,"Blackpool, North West England, England, FY3 8NR, United Kingdom",53.82060734,-3.012907471,21/22 Standards Met
189,RGR,West Suffolk NHS Foundation Trust,4493,3,0.066770532,4493,2,0.044513688,56,IP33 2QZ,"Bury St Edmunds, West Suffolk, Suffolk, East of England, England, IP33 2QZ, United Kingdom",52.23114505,0.708574197,21/22 Approaching Standards
190,RXG,South West Yorkshire Partnership NHS Foundation Trust,5055,3,0.059347181,5055,0,0,179,WF1 3SP,"Wakefield, West Yorkshire, England, WF1 3SP, United Kingdom",53.69839241,-1.492420481,21/22 Standards Exceeded
191,RPG,Oxleas NHS Foundation Trust,5244,3,0.057208238,5244,0,0,108,DA2 7WG,"Dartford, Kent, South East England, England, DA2 7WG, United Kingdom",51.43479,0.17474,21/22 Standards Met
192,RXC,East Sussex Healthcare,6180,3,0.048543689,6180,47,0.760517799,176,TN37 7PT,"Hastings, East Sussex, South East England, England, TN37 7PT, United Kingdom",50.8882967,0.5615019,21/22 Standards Met
193,RXV,Greater Manchester Mental Health NHS Foundation Trust,6448,3,0.046526055,6448,0,0,188,M25 3BL,"Bury, Greater Manchester, England, M25 3BL, United Kingdom",53.53357317,-2.295755411,21/22 Standards Exceeded
194,R0B,South Tyneside & Sunderland NHS Foundation Trust,8573,3,0.034993585,8573,5,0.058322641,1,SR4 7TP,"Sunderland, Tyne and Wear, North East, England, SR4 7TP, United Kingdom",54.9027137,-1.40857358,21/22 Standards Exceeded
195,RHA,Nottinghamshire Healthcare NHS Foundation Trust,9613,3,0.03120774,9613,0,0,60,NG3 6AA,"City of Nottingham, Nottinghamshire, East Midlands, England, NG3 6AA, United Kingdom",52.979471,-1.126550012,21/22 Standards Met
196,RWW,Warrington and Halton Hospitals NHS Foundation Trust,3539,1,0.02825657,3539,0,0,164,WA5 1QG,"Warrington, North West England, England, WA5 1QG, United Kingdom",53.3937446,-2.6089577,21/22 Approaching Standards
197,RWV,Devon Partnership NHS Trust,3651,1,0.027389756,3651,0,0,163,EX2 5AF,"Exeter, Devon, South West England, England, EX2 5AF, United Kingdom",50.7155182,-3.506424233,21/22 Standards Exceeded
198,RNA,The Dudley Group NHS Foundation Trust,4516,1,0.02214349,4516,5,0.110717449,94,DY1 2HQ,"Dudley, West Midlands Combined Authority, England, DY1 2HQ, United Kingdom",52.50247333,-2.121240594,21/22 Standards Met
199,RYG,Coventry and Warwickshire Partnership NHS Trust,5634,1,0.017749379,5634,2,0.035498758,205,CV6 6NY,"Coventry, West Midlands Combined Authority, England, CV6 6NY, United Kingdom",52.45712,-1.48653,21/22 Approaching Standards
200,RW1,Southern Health NHS Foundation Trust,6779,1,0.014751438,6779,0,0,149,SO40 2RZ,"Netley Marsh, New Forest, Hampshire, South East England, England, SO40 2RZ, United Kingdom",50.93065539,-1.527473343,21/22 Standards Exceeded
201,RX3,"Tees, Esk and Wear Valleys NHS Foundation Trust",7466,1,0.013394053,7466,0,0,169,DL2 2TS,"Darlington, Tees Valley, England, DL2 2TS, United Kingdom",54.54325625,-1.591768111,21/22 Approaching Standards
202,RW5,Lancashire Care NHS Foundation Trust,7629,1,0.013107878,7629,1,0.013107878,151,PR5 6AW,"South Ribble, Lancashire, North West England, England, PR5 6AW, United Kingdom",53.71864588,-2.641020168,21/22 Standards Met
203,RAS,The Hillingdon Hospitals NHS Foundation Trust,2336,0,0,2336,21,0.898972603,19,UB8 3NN,"London Borough of Hillingdon, London, Greater London, England, UB8 3NN, United Kingdom",51.52546925,-0.461539314,21/22 Standards Met
204,RWG,West Hertfordshire Hospitals NHS Trust,4322,0,0,4322,79,1.827857473,157,WD18 0HB,"Watford, Hertfordshire, East of England, England, WD18 0HB, United Kingdom",51.64892,-0.40419,21/22 Standards Met
205,RWA,HULL UNIVERSITY TEACHING HOSPITALS NHS TRUST,4718,0,0,4718,0,0,153,HU3 2JZ,"Kingston upon Hull, Yorkshire and the Humber, England, HU3 2JZ, United Kingdom",53.7439724,-0.354205669,21/22 Approaching Standards
206,RV9,Humber Teaching NHS Foundation Trust,3240,0,0,3240,0,0,142,HU10 6ED,"Cottingham, East Riding of Yorkshire, Yorkshire and the Humber, England, HU10 6ED, United Kingdom",53.77205705,-0.444603737,21/22 Standards Met
207,RJ8,Cornwall Partnership NHS Foundation Trust,4423,0,0,4423,0,0,69,PL31 2QN,"Bodmin, Cornwall, South West England, England, PL31 2QN, United Kingdom",50.47176,-4.74082,21/22 Standards Met
208,R1D,Shropshire Community Health NHS Trust,1715,0,0,1715,0,0,5,SY3 8XL,"Shrewsbury, Shropshire, England, SY3 8XL, United Kingdom",52.70584,-2.78937,21/22 Approaching Standards
209,RGT,Cambridge University Hospitals NHS Foundation Trust,8599,0,0,8599,168,1.953715548,57,CB2 0QQ,CB2 0QQ,52.17374,0.13911,21/22 Approaching Standards
210,RXE,Rotherham Doncaster and South Humber NHS Foundation Trust,4164,0,0,4164,0,0,177,DN4 8QN,"Doncaster, Sheffield City Region, England, DN4 8QN, United Kingdom",53.4948,-1.14598,21/22 Standards Met
211,RY9,Hounslow and Richmond Community Healthcare NHS Trust,1679,0,0,1679,0,0,199,TW11 8HU,"London Borough of Richmond upon Thames, London, Greater London, England, TW11 8HU, United Kingdom",51.42746767,-0.326230467,21/22 Standards Met
212,RD8,Milton Keynes University Hospital NHS Foundation Trust,50,0,0,50,0,0,38,MK6 5LD,"Eaglestone, Woughton on the Green, Milton Keynes, South East England, England, MK6 5LD, United Kingdom",52.0262825,-0.735910249,21/22 Standards Met
213,RXY,Kent and Medway NHS and Social Care Partnership Trust,3785,0,0,3785,0,0,191,ME16 9PH,"Maidstone, Kent, South East England, England, ME16 9PH, United Kingdom",51.2725763,0.4866078,21/22 Standards Met
214,RYK,Dudley Integrated Health and Care NHS Trust,291,0,0,291,0,0,207,DY5 1RU,"Dudley, West Midlands Combined Authority, England, DY5 1RU, United Kingdom",52.48176,-2.11786,21/22 Standards Met